{"type":"FeatureCollection","features":[{"type":"Feature","properties":{"code":"MH-PC-29","name":"Mumbai North Central","area_type":"parliamentary_constituency","effective_from":"2008-01-01","effective_to":null},"geometry":{"type":"MultiPolygon","coordinates":[[[[72.913,19.097],[72.899,19.093],[72.906,19.083],[72.896,19.081],[72.898,19.056],[72.913,19.059],[72.898,19.049],[72.881,19.042],[72.867,19.053],[72.832,19.053],[72.818,19.042],[72.822,19.073],[72.839,19.085],[72.837,19.104],[72.847,19.11],[72.865,19.097],[72.878,19.102],[72.884,19.088],[72.893,19.12],[72.913,19.097]]]]}},{"type":"Feature","properties":{"code":"MH-PC-26","name":"Mumbai North","area_type":"parliamentary_constituency","effective_from":"2008-01-01","effective_to":null},"geometry":{"type":"MultiPolygon","coordinates":[[[[72.849,19.269],[72.905,19.248],[72.923,19.213],[72.902,19.179],[72.86,19.188],[72.859,19.17],[72.831,19.173],[72.787,19.129],[72.782,19.166],[72.795,19.172],[72.797,19.195],[72.782,19.193],[72.776,19.223],[72.784,19.264],[72.824,19.245],[72.849,19.269]]]]}},{"type":"Feature","properties":{"code":"MH-PC-27","name":"Mumbai North West","area_type":"parliamentary_constituency","effective_from":"2008-01-01","effective_to":null},"geometry":{"type":"MultiPolygon","coordinates":[[[[72.861,19.187],[72.902,19.179],[72.89,19.152],[72.899,19.139],[72.89,19.099],[72.884,19.088],[72.878,19.102],[72.865,19.097],[72.847,19.11],[72.837,19.104],[72.839,19.085],[72.822,19.073],[72.822,19.123],[72.804,19.145],[72.831,19.173],[72.859,19.17],[72.861,19.187]]]]}},{"type":"Feature","properties":{"code":"MH-PC-28","name":"Mumbai North East","area_type":"parliamentary_constituency","effective_from":"2008-01-01","effective_to":null},"geometry":{"type":"MultiPolygon","coordinates":[[[[72.923,19.067],[72.935,19.067],[72.929,19.053],[72.95,19.039],[72.937,19.035],[72.911,19.06],[72.923,19.067]]],[[[72.935,19.194],[72.968,19.17],[72.94,19.128],[72.928,19.128],[72.941,19.122],[72.935,19.1],[72.898,19.056],[72.896,19.081],[72.906,19.083],[72.899,19.093],[72.915,19.098],[72.889,19.119],[72.899,19.139],[72.89,19.152],[72.923,19.215],[72.935,19.194]]]]}},{"type":"Feature","properties":{"code":"MH-PC-30","name":"Mumbai South Central","area_type":"parliamentary_constituency","effective_from":"2008-01-01","effective_to":null},"geometry":{"type":"MultiPolygon","coordinates":[[[[72.925,19.046],[72.951,19.035],[72.907,18.995],[72.882,19.023],[72.856,18.998],[72.82,19.013],[72.843,19.05],[72.867,19.053],[72.881,19.042],[72.913,19.059],[72.925,19.046]]]]}},{"type":"Feature","properties":{"code":"MH-PC-31","name":"Mumbai South","area_type":"parliamentary_constituency","effective_from":"2008-01-01","effective_to":null},"geometry":{"type":"MultiPolygon","coordinates":[[[[72.827,19.009],[72.857,19.005],[72.86,18.982],[72.849,18.979],[72.844,18.932],[72.809,18.894],[72.804,18.91],[72.826,18.921],[72.824,18.941],[72.812,18.956],[72.794,18.94],[72.791,18.95],[72.814,18.983],[72.815,19.026],[72.827,19.009]]]]}}]}