{"type":"FeatureCollection","features":[{"type":"Feature","properties":{"code":"MH-AC-153","name":"Dahisar","area_type":"assembly_constituency","effective_from":"2008-01-01","effective_to":null},"geometry":{"type":"Polygon","coordinates":[[[72.85057392774462,19.268712082596608],[72.86392644544918,19.268443553127497],[72.87197972058772,19.260199607326058],[72.86365139049934,19.245738819091287],[72.86189944910035,19.228539136571953],[72.83414644630153,19.233029130490024],[72.82471204272667,19.24553758139433],[72.83721180258266,19.252782522495465],[72.83542716093478,19.26042112023856],[72.83943109017275,19.26619909890934],[72.85057392774462,19.268712082596608]]]}},{"type":"Feature","properties":{"code":"MH-AC-152","name":"Borivali","area_type":"assembly_constituency","effective_from":"2008-01-01","effective_to":null},"geometry":{"type":"Polygon","coordinates":[[[72.78429223909563,19.2627901296608],[72.7842443915655,19.263738413497038],[72.8006332264423,19.261933376124432],[72.81167192431991,19.250713695980323],[72.82471204272667,19.24553758139433],[72.83414644630153,19.233029130490024],[72.86189944910035,19.228539136571953],[72.86673499222616,19.211025140098172],[72.85144201633602,19.211285231228487],[72.80203500870874,19.21440872148537],[72.79298115865362,19.193818269297765],[72.78244127874206,19.19289789592119],[72.7862679507054,19.203749739858665],[72.78000541551756,19.206739085440518],[72.78187166704384,19.215709359699247],[72.77600742000647,19.22262833343092],[72.78429223909563,19.2627901296608]]]}},{"type":"Feature","properties":{"code":"MH-AC-154","name":"Magathane","area_type":"assembly_constituency","effective_from":"2008-01-01","effective_to":null},"geometry":{"type":"Polygon","coordinates":[[[72.87197972058772,19.260199607326058],[72.89216161706503,19.250535929689477],[72.90513971642486,19.24787258924863],[72.90600316001786,19.238957805858092],[72.91573604947916,19.231090087837345],[72.92321679821674,19.215077902523205],[72.90927440708828,19.19765421776799],[72.90999236465598,19.192312448061102],[72.9056904135818,19.193058032802014],[72.90228597601703,19.17940678639411],[72.87647719866385,19.18761604354563],[72.87873306797678,19.196545241269916],[72.86175779598557,19.198348450320793],[72.86783843969232,19.205507028626528],[72.86673499222616,19.211025140098172],[72.86189944910035,19.228539136571953],[72.86365139049934,19.245738819091287],[72.87197972058772,19.260199607326058]]]}},{"type":"Feature","properties":{"code":"MH-AC-161","name":"Charkop","area_type":"assembly_constituency","effective_from":"2008-01-01","effective_to":null},"geometry":{"type":"Polygon","coordinates":[[[72.79298115865362,19.193818269297765],[72.80203500870874,19.21440872148537],[72.85144201633602,19.211285231228487],[72.84847682294708,19.19038936207943],[72.8329773851982,19.195968908938028],[72.82898161281122,19.192259567025474],[72.79628703501874,19.19237911570366],[72.79298115865362,19.193818269297765]]]}},{"type":"Feature","properties":{"code":"MH-AC-160","name":"Kandivali East","area_type":"assembly_constituency","effective_from":"2008-01-01","effective_to":null},"geometry":{"type":"Polygon","coordinates":[[[72.86673499222616,19.211025140098172],[72.86783843969232,19.205507028626528],[72.86175779598557,19.198348450320793],[72.87873306797678,19.196545241269916],[72.87647719866385,19.18761604354563],[72.85830989148837,19.187236016129305],[72.8592057448493,19.170152728365792],[72.84803199667937,19.17206381829061],[72.84847682294708,19.19038936207943],[72.85144201633602,19.211285231228487],[72.86673499222616,19.211025140098172]]]}},{"type":"Feature","properties":{"code":"MH-AC-155","name":"Mulund","area_type":"assembly_constituency","effective_from":"2008-01-01","effective_to":null},"geometry":{"type":"Polygon","coordinates":[[[72.90228597601703,19.17940678639411],[72.9056904135818,19.193058032802014],[72.90999236465598,19.192312448061102],[72.90927440708828,19.19765421776799],[72.92321679821674,19.215077902523205],[72.93534362720669,19.204732692559787],[72.93499276660293,19.191520979909342],[72.96711762747657,19.176859422524387],[72.96775572704524,19.170496180354462],[72.95325371478714,19.150314640008673],[72.9351220090735,19.157415230928223],[72.92423007785584,19.133944421098192],[72.91150021116584,19.131059916681863],[72.89863842472357,19.13564920025044],[72.89057173979404,19.15106224192897],[72.89337093991702,19.156407330134243],[72.90228597601703,19.17940678639411]]]}},{"type":"Feature","properties":{"code":"MH-AC-162","name":"Malad West","area_type":"assembly_constituency","effective_from":"2008-01-01","effective_to":null},"geometry":{"type":"Polygon","coordinates":[[[72.84847682294708,19.19038936207943],[72.84803199667937,19.17206381829061],[72.83064453481751,19.17345362608404],[72.81109498314703,19.15217927005733],[72.80238373072467,19.139026571818874],[72.79465635011053,19.14038739266408],[72.79536175584042,19.131713840721204],[72.78663332816564,19.12955488415065],[72.78924651971118,19.150376172522385],[72.78165700696536,19.158325794499888],[72.78162425275713,19.166067401489443],[72.79513841010959,19.172293194875067],[72.79628703501874,19.19237911570366],[72.82898161281122,19.192259567025474],[72.8329773851982,19.195968908938028],[72.84847682294708,19.19038936207943]]]}},{"type":"Feature","properties":{"code":"MH-AC-159","name":"Dindoshi","area_type":"assembly_constituency","effective_from":"2008-01-01","effective_to":null},"geometry":{"type":"Polygon","coordinates":[[[72.90228597601703,19.17940678639411],[72.89337093991702,19.156407330134243],[72.87717286653464,19.162081310304302],[72.87480176888658,19.169372592571165],[72.8592057448493,19.170152728365792],[72.85830989148837,19.187236016129305],[72.87647719866385,19.18761604354563],[72.90228597601703,19.17940678639411]]]}},{"type":"Feature","properties":{"code":"MH-AC-163","name":"Goregaon","area_type":"assembly_constituency","effective_from":"2008-01-01","effective_to":null},"geometry":{"type":"Polygon","coordinates":[[[72.8592057448493,19.170152728365792],[72.85634628924993,19.13735609640679],[72.85112059324086,19.13786347591872],[72.83895228392083,19.14514380804036],[72.82086422140674,19.145594096790205],[72.81723027325859,19.154068925540514],[72.81109498314703,19.15217927005733],[72.83064453481751,19.17345362608404],[72.84803199667937,19.17206381829061],[72.8592057448493,19.170152728365792]]]}},{"type":"Feature","properties":{"code":"MH-AC-158","name":"Jogeshwari East","area_type":"assembly_constituency","effective_from":"2008-01-01","effective_to":null},"geometry":{"type":"Polygon","coordinates":[[[72.89337093991702,19.156407330134243],[72.89057173979404,19.15106224192897],[72.89863842472357,19.13564920025044],[72.89245742207243,19.125334158045007],[72.87262442028083,19.1334411110185],[72.8779283033486,19.125788250927087],[72.86791943443438,19.118302051398587],[72.84839735255582,19.12194446216722],[72.84917049971887,19.128697984924088],[72.85112059324086,19.13786347591872],[72.85634628924993,19.13735609640679],[72.8592057448493,19.170152728365792],[72.87480176888658,19.169372592571165],[72.87717286653464,19.162081310304302],[72.89337093991702,19.156407330134243]]]}},{"type":"Feature","properties":{"code":"MH-AC-164","name":"Versova","area_type":"assembly_constituency","effective_from":"2008-01-01","effective_to":null},"geometry":{"type":"Polygon","coordinates":[[[72.81109498314703,19.15217927005733],[72.81723027325859,19.154068925540514],[72.82086422140674,19.145594096790205],[72.83895228392083,19.14514380804036],[72.85112059324086,19.13786347591872],[72.84917049971887,19.128697984924088],[72.83794662423736,19.125419460539717],[72.83806999323565,19.121005296557257],[72.82168039663304,19.12265198310257],[72.80238373072467,19.139026571818874],[72.81109498314703,19.15217927005733]]]}},{"type":"Feature","properties":{"code":"MH-AC-157","name":"Bhandup West","area_type":"assembly_constituency","effective_from":"2008-01-01","effective_to":null},"geometry":{"type":"Polygon","coordinates":[[[72.95325371478714,19.150314640008673],[72.94021818562084,19.128499083665815],[72.92849228069423,19.12819019352264],[72.93123003104114,19.120896998397825],[72.94075046016565,19.122785302199986],[72.93745900622821,19.115440263857124],[72.92651044380199,19.11881146787499],[72.91167104997902,19.110975814282426],[72.90417386792973,19.111621436680025],[72.8981786670119,19.1184240147565],[72.8903010132812,19.118484380849566],[72.89245742207243,19.125334158045007],[72.89863842472357,19.13564920025044],[72.91150021116584,19.131059916681863],[72.92423007785584,19.133944421098192],[72.9351220090735,19.157415230928223],[72.95325371478714,19.150314640008673]]]}},{"type":"Feature","properties":{"code":"MH-AC-166","name":"Andheri East","area_type":"assembly_constituency","effective_from":"2008-01-01","effective_to":null},"geometry":{"type":"Polygon","coordinates":[[[72.89245742207243,19.125334158045007],[72.8903010132812,19.118484380849566],[72.89020696757757,19.099352396995585],[72.88434282576088,19.087705712448724],[72.87674514267422,19.095373272858296],[72.87813465369135,19.102419616672023],[72.8721247425629,19.104336282393547],[72.86506914922194,19.09729548469892],[72.8472930480358,19.10977819880486],[72.84839735255582,19.12194446216722],[72.86791943443438,19.118302051398587],[72.8779283033486,19.125788250927087],[72.87262442028083,19.1334411110185],[72.89245742207243,19.125334158045007]]]}},{"type":"Feature","properties":{"code":"MH-AC-165","name":"Andheri West","area_type":"assembly_constituency","effective_from":"2008-01-01","effective_to":null},"geometry":{"type":"Polygon","coordinates":[[[72.82168039663304,19.12265198310257],[72.83806999323565,19.121005296557257],[72.83794662423736,19.125419460539717],[72.84917049971887,19.128697984924088],[72.84839735255582,19.12194446216722],[72.8472930480358,19.10977819880486],[72.84669179189274,19.103697845579177],[72.83731318765354,19.103586587750897],[72.8394221949784,19.08470015298974],[72.83427248538698,19.08412707530431],[72.83124637551987,19.07316686575831],[72.8217310833229,19.073033372192413],[72.827624299322,19.091930409061206],[72.82168039663304,19.12265198310257]]]}},{"type":"Feature","properties":{"code":"MH-AC-168","name":"Chandivali","area_type":"assembly_constituency","effective_from":"2008-01-01","effective_to":null},"geometry":{"type":"Polygon","coordinates":[[[72.8903010132812,19.118484380849566],[72.8981786670119,19.1184240147565],[72.90417386792973,19.111621436680025],[72.91456797583146,19.09848131635971],[72.8987331620059,19.09276699530062],[72.90646673085502,19.082758644395994],[72.8960255380482,19.081455335195585],[72.89902152782133,19.06922411380185],[72.89183111891106,19.067759341220665],[72.88954435338923,19.078127543251583],[72.88296994320837,19.07775130288036],[72.88434282576088,19.087705712448724],[72.89020696757757,19.099352396995585],[72.8903010132812,19.118484380849566]]]}},{"type":"Feature","properties":{"code":"MH-AC-156","name":"Vikhroli","area_type":"assembly_constituency","effective_from":"2008-01-01","effective_to":null},"geometry":{"type":"Polygon","coordinates":[[[72.90417386792973,19.111621436680025],[72.91167104997902,19.110975814282426],[72.92651044380199,19.11881146787499],[72.93745900622821,19.115440263857124],[72.93436882056466,19.102454454609415],[72.93074212095217,19.101689450807555],[72.93441025233136,19.099291241297806],[72.9284434241248,19.09563101855673],[72.92368705911053,19.098361346798754],[72.92446298068205,19.105965162362395],[72.9147618867517,19.098369029706987],[72.91456797583146,19.09848131635971],[72.90417386792973,19.111621436680025]]]}},{"type":"Feature","properties":{"code":"MH-AC-167","name":"Vile Parle","area_type":"assembly_constituency","effective_from":"2008-01-01","effective_to":null},"geometry":{"type":"Polygon","coordinates":[[[72.88434282576088,19.087705712448724],[72.88296994320837,19.07775130288036],[72.87523687977824,19.07269443839766],[72.8652575616872,19.072876646440136],[72.86143766881344,19.085807466641313],[72.85155859635222,19.079910656951313],[72.85140978193596,19.071511547519947],[72.84457173010134,19.0722706562658],[72.84505173155225,19.08299939200839],[72.8394221949784,19.08470015298974],[72.83731318765354,19.103586587750897],[72.84669179189274,19.103697845579177],[72.8472930480358,19.10977819880486],[72.86506914922194,19.09729548469892],[72.8721247425629,19.104336282393547],[72.87813465369135,19.102419616672023],[72.87674514267422,19.095373272858296],[72.88434282576088,19.087705712448724]]]}},{"type":"Feature","properties":{"code":"MH-AC-170","name":"Ghatkopar East","area_type":"assembly_constituency","effective_from":"2008-01-01","effective_to":null},"geometry":{"type":"MultiPolygon","coordinates":[[[[72.92269200423266,19.067147061187995],[72.93450563622616,19.066992939872307],[72.9295009270262,19.062576528484044],[72.93475423222208,19.066536724590208],[72.93479444540736,19.061660289290955],[72.91989225102662,19.054107024619555],[72.91864891401622,19.054235376761255],[72.91289603902106,19.059103654310263],[72.91127031926987,19.060498620614908],[72.92269200423266,19.067147061187995]]],[[[72.9284434241248,19.09563101855673],[72.93441025233136,19.099291241297806],[72.92516718941431,19.088669748809934],[72.9147618867517,19.098369029706987],[72.92446298068205,19.105965162362395],[72.92368705911053,19.098361346798754],[72.9284434241248,19.09563101855673]]]]}},{"type":"Feature","properties":{"code":"MH-AC-169","name":"Ghatkopar West","area_type":"assembly_constituency","effective_from":"2008-01-01","effective_to":null},"geometry":{"type":"Polygon","coordinates":[[[72.9147618867517,19.098369029706987],[72.92516718941431,19.088669748809934],[72.91723700898086,19.072217876853585],[72.90799324279396,19.070603680115767],[72.90575680423319,19.06084165801616],[72.89785300271399,19.056040058901658],[72.89902152782133,19.06922411380185],[72.8960255380482,19.081455335195585],[72.90646673085502,19.082758644395994],[72.8987331620059,19.09276699530062],[72.91456797583146,19.09848131635971],[72.9147618867517,19.098369029706987]]]}},{"type":"Feature","properties":{"code":"MH-AC-177","name":"Vandre West","area_type":"assembly_constituency","effective_from":"2008-01-01","effective_to":null},"geometry":{"type":"Polygon","coordinates":[[[72.8394221949784,19.08470015298974],[72.84505173155225,19.08299939200839],[72.84457173010134,19.0722706562658],[72.84367499900208,19.050493281539786],[72.8391195425329,19.048006876416252],[72.83135958757498,19.052988126800642],[72.81817850763207,19.041940986987015],[72.8242286787106,19.05513671778533],[72.8217310833229,19.073033372192413],[72.83124637551987,19.07316686575831],[72.83427248538698,19.08412707530431],[72.8394221949784,19.08470015298974]]]}},{"type":"Feature","properties":{"code":"MH-AC-175","name":"Kalina","area_type":"assembly_constituency","effective_from":"2008-01-01","effective_to":null},"geometry":{"type":"Polygon","coordinates":[[[72.88296994320837,19.07775130288036],[72.88954435338923,19.078127543251583],[72.89183111891106,19.067759341220665],[72.88762729466396,19.067120998835094],[72.8850159206483,19.056051097180443],[72.87673857132808,19.05682986150896],[72.8763750797462,19.061627795886125],[72.86753146780308,19.056718250247116],[72.85501378985458,19.05856325708868],[72.85140978193596,19.071511547519947],[72.85155859635222,19.079910656951313],[72.86143766881344,19.085807466641313],[72.8652575616872,19.072876646440136],[72.87523687977824,19.07269443839766],[72.88296994320837,19.07775130288036]]]}},{"type":"Feature","properties":{"code":"MH-AC-176","name":"Vandre East","area_type":"assembly_constituency","effective_from":"2008-01-01","effective_to":null},"geometry":{"type":"Polygon","coordinates":[[[72.85140978193596,19.071511547519947],[72.85501378985458,19.05856325708868],[72.86753146780308,19.056718250247116],[72.8763750797462,19.061627795886125],[72.87673857132808,19.05682986150896],[72.87539982344316,19.04981003600443],[72.86272329734237,19.05257609341203],[72.86177350714172,19.052459927084044],[72.84367499900208,19.050493281539786],[72.84457173010134,19.0722706562658],[72.85140978193596,19.071511547519947]]]}},{"type":"Feature","properties":{"code":"MH-AC-174","name":"Kurla (SC)","area_type":"assembly_constituency","effective_from":"2008-01-01","effective_to":null},"geometry":{"type":"Polygon","coordinates":[[[72.89183111891106,19.067759341220665],[72.89902152782133,19.06922411380185],[72.89785300271399,19.056040058901658],[72.90575680423319,19.06084165801616],[72.91127031926987,19.060498620614908],[72.91289603902106,19.059103654310263],[72.88076889476872,19.04171832923754],[72.87539982344316,19.04981003600443],[72.87673857132808,19.05682986150896],[72.8850159206483,19.056051097180443],[72.88762729466396,19.067120998835094],[72.89183111891106,19.067759341220665]]]}},{"type":"Feature","properties":{"code":"MH-AC-171","name":"Mankhurd Shivaji Nagar","area_type":"assembly_constituency","effective_from":"2008-01-01","effective_to":null},"geometry":{"type":"Polygon","coordinates":[[[72.91989225102662,19.054107024619555],[72.93479444540736,19.061660289290955],[72.92820807784057,19.054713816089816],[72.93782492328165,19.047432541478656],[72.95035352259703,19.03875484096318],[72.93663178193123,19.03488030168461],[72.93842215675721,19.040025087487834],[72.92485157863752,19.046455512611885],[72.92579967001882,19.050482959121325],[72.91989225102662,19.054107024619555]]]}},{"type":"Feature","properties":{"code":"MH-AC-173","name":"Chembur","area_type":"assembly_constituency","effective_from":"2008-01-01","effective_to":null},"geometry":{"type":"Polygon","coordinates":[[[72.91289603902106,19.059103654310263],[72.91864891401622,19.054235376761255],[72.91592682176548,19.033757318245705],[72.90677230070116,19.034018081169563],[72.90183353608887,19.026031182293252],[72.90627781117212,18.996287769365097],[72.89923287299877,19.005520644761987],[72.88995824028063,19.004838061127657],[72.88588738079807,19.012837105348183],[72.89048178960297,19.02033874084026],[72.88321046059434,19.022727324006837],[72.87879800262579,19.02121574441111],[72.88076889476872,19.04171832923754],[72.91289603902106,19.059103654310263]]]}},{"type":"Feature","properties":{"code":"MH-AC-179","name":"Sion Koliwada","area_type":"assembly_constituency","effective_from":"2008-01-01","effective_to":null},"geometry":{"type":"Polygon","coordinates":[[[72.86272329734237,19.05257609341203],[72.87539982344316,19.04981003600443],[72.88076889476872,19.04171832923754],[72.87879800262579,19.02121574441111],[72.8758146267437,19.018427353239815],[72.86027376082546,19.01724123829257],[72.86065396271027,19.026047232493852],[72.85639736264824,19.025051684787456],[72.85395051780222,19.03095668460338],[72.86272329734237,19.05257609341203]]]}},{"type":"Feature","properties":{"code":"MH-AC-178","name":"Dharavi (SC)","area_type":"assembly_constituency","effective_from":"2008-01-01","effective_to":null},"geometry":{"type":"Polygon","coordinates":[[[72.86177350714172,19.052459927084044],[72.86272329734237,19.05257609341203],[72.85395051780222,19.03095668460338],[72.84982279778393,19.033502450377853],[72.83930125864623,19.043904965142076],[72.8391195425329,19.048006876416252],[72.84367499900208,19.050493281539786],[72.86177350714172,19.052459927084044]]]}},{"type":"Feature","properties":{"code":"MH-AC-172","name":"Anushakti Nagar","area_type":"assembly_constituency","effective_from":"2008-01-01","effective_to":null},"geometry":{"type":"Polygon","coordinates":[[[72.91864891401622,19.054235376761255],[72.91989225102662,19.054107024619555],[72.92579967001882,19.050482959121325],[72.92485157863752,19.046455512611885],[72.93842215675721,19.040025087487834],[72.93663178193123,19.03488030168461],[72.95035352259703,19.03875484096318],[72.9494036883296,19.032348582421207],[72.93407261176168,19.025363953683552],[72.91408823338531,18.99926518454066],[72.90717291989438,18.999978418868977],[72.90627781117212,18.996287769365097],[72.90183353608887,19.026031182293252],[72.90677230070116,19.034018081169563],[72.91592682176548,19.033757318245705],[72.91864891401622,19.054235376761255]]]}},{"type":"Feature","properties":{"code":"MH-AC-181","name":"Mahim","area_type":"assembly_constituency","effective_from":"2008-01-01","effective_to":null},"geometry":{"type":"Polygon","coordinates":[[[72.83930125864623,19.043904965142076],[72.84982279778393,19.033502450377853],[72.83883935245422,19.016799268271654],[72.82859409943819,19.010582912371547],[72.82726628910802,19.009108101557672],[72.82027605759401,19.01200546088336],[72.81945184872387,19.01883847651453],[72.8254739933302,19.017970337561053],[72.83421120288477,19.025116872145986],[72.83930125864623,19.043904965142076]]]}},{"type":"Feature","properties":{"code":"MH-AC-180","name":"Wadala","area_type":"assembly_constituency","effective_from":"2008-01-01","effective_to":null},"geometry":{"type":"Polygon","coordinates":[[[72.85395051780222,19.03095668460338],[72.85639736264824,19.025051684787456],[72.86065396271027,19.026047232493852],[72.86027376082546,19.01724123829257],[72.8758146267437,19.018427353239815],[72.8562880032888,18.99827460199134],[72.85740311046521,19.004599677832914],[72.8515943506988,19.000573677433295],[72.851187801376,19.005123650735925],[72.83608314172369,19.005304896503844],[72.82859409943819,19.010582912371547],[72.83883935245422,19.016799268271654],[72.84982279778393,19.033502450377853],[72.85395051780222,19.03095668460338]]]}},{"type":"Feature","properties":{"code":"MH-AC-182","name":"Worli","area_type":"assembly_constituency","effective_from":"2008-01-01","effective_to":null},"geometry":{"type":"Polygon","coordinates":[[[72.81945184872387,19.01883847651453],[72.82027605759401,19.01200546088336],[72.82726628910802,19.009108101557672],[72.8290058270573,18.98767751080851],[72.82041762707189,18.980125044735075],[72.80583442581815,18.97752068003541],[72.80855471762618,18.98313873856199],[72.81374503520527,18.983203737062865],[72.81005404935496,18.98881542569137],[72.81679488987231,19.013108213173552],[72.81537257428494,19.025886855494036],[72.81945184872387,19.01883847651453]]]}},{"type":"Feature","properties":{"code":"MH-AC-183","name":"Shivadi","area_type":"assembly_constituency","effective_from":"2008-01-01","effective_to":null},"geometry":{"type":"Polygon","coordinates":[[[72.82859409943819,19.010582912371547],[72.83608314172369,19.005304896503844],[72.851187801376,19.005123650735925],[72.8515943506988,19.000573677433295],[72.85740311046521,19.004599677832914],[72.8562880032888,18.99827460199134],[72.86046444228026,18.982466725558993],[72.84960122821417,18.97987011571331],[72.83204024845878,18.98867399560845],[72.8290058270573,18.98767751080851],[72.82726628910802,19.009108101557672],[72.82859409943819,19.010582912371547]]]}},{"type":"Feature","properties":{"code":"MH-AC-184","name":"Byculla","area_type":"assembly_constituency","effective_from":"2008-01-01","effective_to":null},"geometry":{"type":"Polygon","coordinates":[[[72.83204024845878,18.98867399560845],[72.84960122821417,18.97987011571331],[72.85547053933396,18.97657463730974],[72.84904724943107,18.975793207390666],[72.8534433388391,18.974653300509488],[72.84863285802004,18.973970461467673],[72.84887762560197,18.96347906130967],[72.82916285857914,18.962579385830054],[72.82970057492167,18.96848921320668],[72.82421015627375,18.968103725106857],[72.8165789563538,18.969293647783672],[72.82041762707189,18.980125044735075],[72.8290058270573,18.98767751080851],[72.83204024845878,18.98867399560845]]]}},{"type":"Feature","properties":{"code":"MH-AC-185","name":"Malabar Hill","area_type":"assembly_constituency","effective_from":"2008-01-01","effective_to":null},"geometry":{"type":"Polygon","coordinates":[[[72.82041762707189,18.980125044735075],[72.8165789563538,18.969293647783672],[72.81357794296775,18.962394803577354],[72.82391455451312,18.96210311386767],[72.82409459968608,18.954064812441175],[72.81801371316237,18.95082781335293],[72.80824373655923,18.956236216528225],[72.79249519379823,18.940046011314394],[72.79121868619347,18.949785420860508],[72.80583442581815,18.97752068003541],[72.82041762707189,18.980125044735075]]]}},{"type":"Feature","properties":{"code":"MH-AC-186","name":"Mumbadevi","area_type":"assembly_constituency","effective_from":"2008-01-01","effective_to":null},"geometry":{"type":"Polygon","coordinates":[[[72.82421015627375,18.968103725106857],[72.82970057492167,18.96848921320668],[72.82916285857914,18.962579385830054],[72.84887762560197,18.96347906130967],[72.84562793078442,18.94577647970084],[72.8421985208451,18.946893160690877],[72.84351853585179,18.9532800901041],[72.83449788786731,18.95683030507456],[72.82642065568876,18.951421023261673],[72.82409459968608,18.954064812441175],[72.82391455451312,18.96210311386767],[72.81357794296775,18.962394803577354],[72.8165789563538,18.969293647783672],[72.82421015627375,18.968103725106857]]]}},{"type":"Feature","properties":{"code":"MH-AC-187","name":"Colaba","area_type":"assembly_constituency","effective_from":"2008-01-01","effective_to":null},"geometry":{"type":"Polygon","coordinates":[[[72.84351853585179,18.9532800901041],[72.8421985208451,18.946893160690877],[72.84562793078442,18.94577647970084],[72.84341068465545,18.931786187982254],[72.84082200143428,18.93412872765873],[72.83658608128269,18.930015811380656],[72.83009105246015,18.914969291099965],[72.82052511044554,18.910910317057528],[72.80932745739631,18.89472133761967],[72.80429961853264,18.89976259167031],[72.80365546922457,18.910117970268175],[72.81088310826891,18.912878408711663],[72.81640639354026,18.91001292315792],[72.82579136767754,18.920650984755184],[72.82597487434106,18.92682364259707],[72.82021731028073,18.929161109197878],[72.82363592655685,18.94127762925922],[72.81801371316237,18.95082781335293],[72.82409459968608,18.954064812441175],[72.82642065568876,18.951421023261673],[72.83449788786731,18.95683030507456],[72.84351853585179,18.9532800901041]]]}}]}